{"type": "FeatureCollection", "features": [ {"type": "Feature", "properties": {"norad_id": 66563, "name": "STARLINK-35437", "group": "last-30-days", "lat": 6.458252306185469, "lon": -9.34402739208891, "alt_km": 343.6547799581085, "timestamp": "2025-12-03T04:52:28.421330+00:00", "meta": {"OBJECT_NAME": "STARLINK-35437", "OBJECT_ID": "2025-268G", "EPOCH": "2025-12-02T20:00:03.000384", "MEAN_MOTION": 15.76124296, "ECCENTRICITY": 0.0001433, "INCLINATION": 42.9976, "RA_OF_ASC_NODE": 179.8796, "ARG_OF_PERICENTER": 270.0493, "MEAN_ANOMALY": 320.6135, "EPHEMERIS_TYPE": 0, "CLASSIFICATION_TYPE": "U", "NORAD_CAT_ID": 66563, "ELEMENT_SET_NO": 999, "REV_AT_EPOCH": 307, "BSTAR": -0.0090935, "MEAN_MOTION_DOT": -0.01311087, "MEAN_MOTION_DDOT": 0}, "tle": {"line1": "1 66563U 25268G   25336.83336806 -.01311087  00000+0 -90935-2 0  9995", "line2": "2 66563  42.9976 179.8796 0001433 270.0493 320.6135 15.76124296  3071"}}, "geometry": {"type": "Point", "coordinates": [-9.34402739208891, 6.458252306185469]}}, {"type": "Feature", "properties": {"norad_id": 66564, "name": "STARLINK-35358", "group": "last-30-days", "lat": 5.157757574984852, "lon": -7.929722299137109, "alt_km": 343.8912138545966, "timestamp": "2025-12-03T04:52:28.421340+00:00", "meta": {"OBJECT_NAME": "STARLINK-35358", "OBJECT_ID": "2025-268H", "EPOCH": "2025-12-02T20:00:03.000384", "MEAN_MOTION": 15.76095697, "ECCENTRICITY": 0.00015, "INCLINATION": 42.9975, "RA_OF_ASC_NODE": 179.8751, "ARG_OF_PERICENTER": 272.8541, "MEAN_ANOMALY": 319.7521, "EPHEMERIS_TYPE": 0, "CLASSIFICATION_TYPE": "U", "NORAD_CAT_ID": 66564, "ELEMENT_SET_NO": 999, "REV_AT_EPOCH": 302, "BSTAR": -0.0089232, "MEAN_MOTION_DOT": -0.01287607, "MEAN_MOTION_DDOT": 0}, "tle": {"line1": "1 66564U 25268H   25336.83336806 -.01287607  00000+0 -89232-2 0  9994", "line2": "2 66564  42.9975 179.8751 0001500 272.8541 319.7521 15.76095697  3026"}}, "geometry": {"type": "Point", "coordinates": [-7.929722299137109, 5.157757574984852]}}, {"type": "Feature", "properties": {"norad_id": 66565, "name": "STARLINK-35893", "group": "last-30-days", "lat": 3.8573502961466364, "lon": -6.525385286423678, "alt_km": 344.2450032767556, "timestamp": "2025-12-03T04:52:28.421350+00:00", "meta": {"OBJECT_NAME": "STARLINK-35893", "OBJECT_ID": "2025-268J", "EPOCH": "2025-12-02T20:00:03.000384", "MEAN_MOTION": 15.76059815, "ECCENTRICITY": 0.0001534, "INCLINATION": 42.9978, "RA_OF_ASC_NODE": 179.8698, "ARG_OF_PERICENTER": 279.294, "MEAN_ANOMALY": 315.2656, "EPHEMERIS_TYPE": 0, "CLASSIFICATION_TYPE": "U", "NORAD_CAT_ID": 66565, "ELEMENT_SET_NO": 999, "REV_AT_EPOCH": 307, "BSTAR": -0.0088282, "MEAN_MOTION_DOT": -0.01273475, "MEAN_MOTION_DDOT": 0}, "tle": {"line1": "1 66565U 25268J   25336.83336806 -.01273475  00000+0 -88282-2 0  9997", "line2": "2 66565  42.9978 179.8698 0001534 279.2940 315.2656 15.76059815  3078"}}, "geometry": {"type": "Point", "coordinates": [-6.525385286423678, 3.8573502961466364]}}, {"type": "Feature", "properties": {"norad_id": 66566, "name": "STARLINK-35871", "group": "last-30-days", "lat": 2.548312665156242, "lon": -5.118289609730046, "alt_km": 344.4401101329786, "timestamp": "2025-12-03T04:52:28.421360+00:00", "meta": {"OBJECT_NAME": "STARLINK-35871", "OBJECT_ID": "2025-268K", "EPOCH": "2025-12-02T20:00:03.000384", "MEAN_MOTION": 15.75942256, "ECCENTRICITY": 0.0001561, "INCLINATION": 42.9979, "RA_OF_ASC_NODE": 179.8647, "ARG_OF_PERICENTER": 278.914, "MEAN_ANOMALY": 317.6637, "EPHEMERIS_TYPE": 0, "CLASSIFICATION_TYPE": "U", "NORAD_CAT_ID": 66566, "ELEMENT_SET_NO": 999, "REV_AT_EPOCH": 307, "BSTAR": -0.0080574, "MEAN_MOTION_DOT": -0.0114829, "MEAN_MOTION_DDOT": 0}, "tle": {"line1": "1 66566U 25268K   25336.83336806 -.01148290  00000+0 -80574-2 0  9990", "line2": "2 66566  42.9979 179.8647 0001561 278.9140 317.6637 15.75942256  3076"}}, "geometry": {"type": "Point", "coordinates": [-5.118289609730046, 2.548312665156242]}}, {"type": "Feature", "properties": {"norad_id": 66567, "name": "STARLINK-35825", "group": "last-30-days", "lat": 1.2473117167047456, "lon": -3.724118658944356, "alt_km": 344.5421877900135, "timestamp": "2025-12-03T04:52:28.421369+00:00", "meta": {"OBJECT_NAME": "STARLINK-35825", "OBJECT_ID": "2025-268L", "EPOCH": "2025-12-02T20:00:03.000384", "MEAN_MOTION": 15.75862328, "ECCENTRICITY": 0.0001445, "INCLINATION": 42.9979, "RA_OF_ASC_NODE": 179.8599, "ARG_OF_PERICENTER": 274.0522, "MEAN_ANOMALY": 324.5081, "EPHEMERIS_TYPE": 0, "CLASSIFICATION_TYPE": "U", "NORAD_CAT_ID": 66567, "ELEMENT_SET_NO": 999, "REV_AT_EPOCH": 307, "BSTAR": -0.0076601, "MEAN_MOTION_DOT": -0.01093964, "MEAN_MOTION_DDOT": 0}, "tle": {"line1": "1 66567U 25268L   25336.83336806 -.01093964  00000+0 -76601-2 0  9994", "line2": "2 66567  42.9979 179.8599 0001445 274.0522 324.5081 15.75862328  3076"}}, "geometry": {"type": "Point", "coordinates": [-3.724118658944356, 1.2473117167047456]}}, {"type": "Feature", "properties": {"norad_id": 66568, "name": "STARLINK-35803", "group": "last-30-days", "lat": -0.06822912469144073, "lon": -2.317029037840388, "alt_km": 344.7142664090179, "timestamp": "2025-12-03T04:52:28.421381+00:00", "meta": {"OBJECT_NAME": "STARLINK-35803", "OBJECT_ID": "2025-268M", "EPOCH": "2025-12-02T20:00:03.000384", "MEAN_MOTION": 15.75744659, "ECCENTRICITY": 0.0001257, "INCLINATION": 42.9978, "RA_OF_ASC_NODE": 179.8546, "ARG_OF_PERICENTER": 278.4221, "MEAN_ANOMALY": 322.1395, "EPHEMERIS_TYPE": 0, "CLASSIFICATION_TYPE": "U", "NORAD_CAT_ID": 66568, "ELEMENT_SET_NO": 999, "REV_AT_EPOCH": 307, "BSTAR": -0.0066133, "MEAN_MOTION_DOT": -0.00938467, "MEAN_MOTION_DDOT": 0}, "tle": {"line1": "1 66568U 25268M   25336.83336806 -.00938467  00000+0 -66133-2 0  9999", "line2": "2 66568  42.9978 179.8546 0001257 278.4221 322.1395 15.75744659  3071"}}, "geometry": {"type": "Point", "coordinates": [-2.317029037840388, -0.06822912469144073]}}, {"type": "Feature", "properties": {"norad_id": 66569, "name": "STARLINK-35835", "group": "last-30-days", "lat": -1.373187201072993, "lon": -0.9208858902606061, "alt_km": 344.7185633888266, "timestamp": "2025-12-03T04:52:28.421392+00:00", "meta": {"OBJECT_NAME": "STARLINK-35835", "OBJECT_ID": "2025-268N", "EPOCH": "2025-12-02T20:00:03.000384", "MEAN_MOTION": 15.75703264, "ECCENTRICITY": 0.0001432, "INCLINATION": 42.9979, "RA_OF_ASC_NODE": 179.8497, "ARG_OF_PERICENTER": 270.5701, "MEAN_ANOMALY": 331.9379, "EPHEMERIS_TYPE": 0, "CLASSIFICATION_TYPE": "U", "NORAD_CAT_ID": 66569, "ELEMENT_SET_NO": 999, "REV_AT_EPOCH": 307, "BSTAR": -0.0062912, "MEAN_MOTION_DOT": -0.00895863, "MEAN_MOTION_DDOT": 0}, "tle": {"line1": "1 66569U 25268N   25336.83336806 -.00895863  00000+0 -62912-2 0  9993", "line2": "2 66569  42.9979 179.8497 0001432 270.5701 331.9379 15.75703264  3076"}}, "geometry": {"type": "Point", "coordinates": [-0.9208858902606061, -1.373187201072993]}}, {"type": "Feature", "properties": {"norad_id": 66570, "name": "STARLINK-35834", "group": "last-30-days", "lat": -2.6729036474959633, "lon": 0.47222607332742045, "alt_km": 345.10883038312477, "timestamp": "2025-12-03T04:52:28.421401+00:00", "meta": {"OBJECT_NAME": "STARLINK-35834", "OBJECT_ID": "2025-268P", "EPOCH": "2025-12-02T20:00:03.000384", "MEAN_MOTION": 15.75599326, "ECCENTRICITY": 0.0001703, "INCLINATION": 42.998, "RA_OF_ASC_NODE": 179.8449, "ARG_OF_PERICENTER": 281.5885, "MEAN_ANOMALY": 322.9041, "EPHEMERIS_TYPE": 0, "CLASSIFICATION_TYPE": "U", "NORAD_CAT_ID": 66570, "ELEMENT_SET_NO": 999, "REV_AT_EPOCH": 307, "BSTAR": -0.0054706, "MEAN_MOTION_DOT": -0.00785898, "MEAN_MOTION_DDOT": 0}, "tle": {"line1": "1 66570U 25268P   25336.83336806 -.00785898  00000+0 -54706-2 0  9993", "line2": "2 66570  42.9980 179.8449 0001703 281.5885 322.9041 15.75599326  3071"}}, "geometry": {"type": "Point", "coordinates": [0.47222607332742045, -2.6729036474959633]}}, {"type": "Feature", "properties": {"norad_id": 66571, "name": "STARLINK-35836", "group": "last-30-days", "lat": -3.974754019002625, "lon": 1.8721363220344056, "alt_km": 345.0870411066044, "timestamp": "2025-12-03T04:52:28.421411+00:00", "meta": {"OBJECT_NAME": "STARLINK-35836", "OBJECT_ID": "2025-268Q", "EPOCH": "2025-12-02T20:00:03.000384", "MEAN_MOTION": 15.75489415, "ECCENTRICITY": 0.0001323, "INCLINATION": 42.998, "RA_OF_ASC_NODE": 179.8399, "ARG_OF_PERICENTER": 275.5502, "MEAN_ANOMALY": 330.928, "EPHEMERIS_TYPE": 0, "CLASSIFICATION_TYPE": "U", "NORAD_CAT_ID": 66571, "ELEMENT_SET_NO": 999, "REV_AT_EPOCH": 307, "BSTAR": -0.0045712, "MEAN_MOTION_DOT": -0.00663055, "MEAN_MOTION_DDOT": 0}, "tle": {"line1": "1 66571U 25268Q   25336.83336806 -.00663055  00000+0 -45712-2 0  9991", "line2": "2 66571  42.9980 179.8399 0001323 275.5502 330.9280 15.75489415  3074"}}, "geometry": {"type": "Point", "coordinates": [1.8721363220344056, -3.974754019002625]}}, {"type": "Feature", "properties": {"norad_id": 66572, "name": "STARLINK-35870", "group": "last-30-days", "lat": -5.245738413836401, "lon": 3.2464457473501707, "alt_km": 345.14120570215255, "timestamp": "2025-12-03T04:52:28.421425+00:00", "meta": {"OBJECT_NAME": "STARLINK-35870", "OBJECT_ID": "2025-268R", "EPOCH": "2025-12-02T20:00:03.000384", "MEAN_MOTION": 15.75380188, "ECCENTRICITY": 0.0002126, "INCLINATION": 42.9982, "RA_OF_ASC_NODE": 179.8358, "ARG_OF_PERICENTER": 268.3985, "MEAN_ANOMALY": 340.0626, "EPHEMERIS_TYPE": 0, "CLASSIFICATION_TYPE": "U", "NORAD_CAT_ID": 66572, "ELEMENT_SET_NO": 999, "REV_AT_EPOCH": 307, "BSTAR": -0.0040186, "MEAN_MOTION_DOT": -0.00585604, "MEAN_MOTION_DDOT": 0}, "tle": {"line1": "1 66572U 25268R   25336.83336806 -.00585604  00000+0 -40186-2 0  9995", "line2": "2 66572  42.9982 179.8358 0002126 268.3985 340.0626 15.75380188  3072"}}, "geometry": {"type": "Point", "coordinates": [3.2464457473501707, -5.245738413836401]}}]}